CORVUS BC1              
1 42847U 17042Y   26068.93334460  .00004853  00000+0  33801-3 0  9990
2 42847  97.3986 234.9925 0013283  71.1953 289.0714 15.05817892472152
STARLINK-4075           
1 52670U 22053Q   26068.53668016 -.00000474  00000+0 -11683-4 0  9998
2 52670  53.2177 154.8782 0001217  89.3389 270.7743 15.08831881211022
